satname,norad_id,inclination_deg,eccentricity,mean_motion_rev_per_day,perigee_km,apogee_km,l1,l2
STARLINK-1008,44714,53.0546,0.00014,15.06403661,546.2307902960283,548.169884750535,1 44714U 19074B   25253.44038695  .00002230  00000+0  16855-3 0  9991,2 44714  53.0546 275.7925 0001400 104.2749 255.8395 15.06403661321582
STARLINK-1010,44716,53.0524,0.0011007,15.75810529,334.928502350338,349.7229289725956,1 44716U 19074D   25253.36099449  .00111724  00000+0  70309-3 0  9991,2 44716  53.0524 230.4975 0011007  18.3515 341.7899 15.75810529322196
STARLINK-1011,44717,53.0517,0.0005838,15.64884358,369.62971727442346,377.5130119609512,1 44717U 19074E   25252.81676160  .00121742  00000+0  12090-2 0  9995,2 44717  53.0517 286.1948 0005838   5.2034 354.9040 15.64884358321386
STARLINK-1012,44718,53.0529,0.0001265,15.06412721,546.2965185191733,548.0486218404285,1 44718U 19074F   25253.35193520  .00001566  00000+0  12395-3 0  9990,2 44718  53.0529 276.1899 0001265  84.7859 275.3274 15.06412721321563
STARLINK-1015,44721,53.0457,0.000315,15.93400027,290.6749353697169,294.87761073173897,1 44721U 19074J   25253.66670139  .00285021  42224-4  78810-3 0  9997,2 44721  53.0457 218.0044 0003150  15.0373   0.9351 15.93400027  5971
STARLINK-1017,44723,53.0528,0.0002887,15.10481711,532.7341361090257,536.7256254459862,1 44723U 19074L   25253.33509502  .00026100  00000+0  15791-2 0  9998,2 44723  53.0528 275.0460 0002887 335.0387  25.0464 15.10481711321582
STARLINK-1019,44724,53.0548,0.0001299,15.06404164,546.2991947875116,548.0983970272882,1 44724U 19074M   25253.34825206  .00000872  00000+0  77437-4 0  9997,2 44724  53.0548 276.2051 0001299  88.2400 271.8738 15.06404164321568
STARLINK-1020,44725,53.0554,0.0001269,15.06380957,546.3910884669467,548.1487567439035,1 44725U 19074N   25253.42013993  .00000262  00000+0  36482-4 0  9997,2 44725  53.0554 295.8833 0001269  95.7020 264.4114 15.06380957321298
STARLINK-1021,44726,53.0448,0.0003473,15.87608109,306.6685519861139,311.3134310890373,1 44726U 19074P   25253.66670139  .00258936  00000+0  92610-3 0  9992,2 44726  53.0448 223.5057 0003473 358.3371 261.8932 15.87608109  5887
STARLINK-1029,44734,53.0512,0.0008946,15.82594144,317.1126890327323,329.1025559112595,1 44734U 19074X   25253.66670139  .00200838  00000+0  91879-3 0  9995,2 44734  53.0512 146.9406 0008946  82.2295 247.7757 15.82594144  5989
STARLINK-1030,44735,53.0389,0.0002136,16.07559476,252.1302317477357,254.96328704975076,1 44735U 19074Y   25252.99034233  .00603660  19353-3  73330-3 0  9997,2 44735  53.0389 243.8068 0002136 120.7439 239.3804 16.07559476321984
STARLINK-1031,44736,53.0545,0.000667,15.36055732,453.2269158447134,462.3460377627698,1 44736U 19074Z   25252.79473018  .00073720  00000+0  20587-2 0  9992,2 44736  53.0545 280.7861 0006670 331.6898  28.3740 15.36055732321464
STARLINK-1036,44741,53.0548,0.0001239,15.06402533,546.345744944515,548.0618443934336,1 44741U 19074AE  25253.38327260  .00002150  00000+0  16320-3 0  9991,2 44741  53.0548 296.0503 0001239  96.9828 263.1302 15.06402533321292
STARLINK-1039,44744,53.0543,0.0004047,15.0898715,536.4941626504033,542.0931310159513,1 44744U 19074AH  25253.46503785  .00020514  00000+0  12978-2 0  9999,2 44744  53.0543 315.2038 0004047 313.0493  47.0158 15.08987150321033
STARLINK-1042,44747,53.047,0.0002883,15.40530298,442.57617218200176,446.510129556993,1 44747U 19074AL  25253.24996237  .00015922  00000+0  39520-3 0  9996,2 44747  53.0470 234.3437 0002883   5.5382 354.5653 15.40530298322170
STARLINK-1043,44748,53.0561,0.0001014,15.06383052,546.5612659934568,547.9657372151814,1 44748U 19074AM  25252.89121472 -.00003408  00000+0 -21010-3 0  9991,2 44748  53.0561 318.2609 0001014  97.3958 262.7146 15.06383052320944
STARLINK-1046,44751,53.0545,0.0001299,15.06401476,546.3074320245096,548.1066364045982,1 44751U 19074AQ  25253.17132418  .00001333  00000+0  10839-3 0  9999,2 44751  53.0545 317.0013 0001299  82.0891 278.0246 15.06401476320984
STARLINK-1047,44752,53.0724,0.0004634,15.27761572,479.3262362845635,485.68467971463633,1 44752U 19074AR  25253.43056823  .00010493  00000+0  39397-3 0  9991,2 44752  53.0724 265.0914 0004634  30.3226 329.8039 15.27761572321749
STARLINK-1048,44753,53.0545,0.0001173,15.06405939,546.3810145677153,548.0056970691912,1 44753U 19074AS  25253.32981860  .00000657  00000+0  62973-4 0  9996,2 44753  53.0545 276.2878 0001173  87.2887 272.8236 15.06405939321568
STARLINK-1053,44758,53.0421,0.0003215,15.54348435,401.8668377501026,406.227782261436,1 44758U 19074AX  25253.38795412  .00032978  00000+0  49987-3 0  9993,2 44758  53.0421 252.8395 0003215  46.7309 313.3969 15.54348435321911
STARLINK-1054,44759,53.0462,0.001083,15.61840473,375.0192304524371,389.662425427754,1 44759U 19074AY  25253.66670139  .00134811  00000+0  15026-2 0  9998,2 44759  53.0462 281.8579 0010830 333.1426 227.2127 15.61840473  5798
STARLINK-1056,44761,53.0441,0.0011419,15.73345678,341.66076195923506,357.0249804891364,1 44761U 19074BA  25253.34890996  .00166149  00000+0  11536-2 0  9992,2 44761  53.0441 273.7592 0011419 357.5909   2.5052 15.73345678321616
STARLINK-1057,44762,53.0438,0.0004352,15.89578615,300.555593563251,306.3712585741014,1 44762U 19074BB  25253.66670139  .00264409  00000+0  85642-3 0  9991,2 44762  53.0438 244.3490 0004352   3.8782 256.2382 15.89578615  5992
STARLINK-1060,44765,53.0532,0.0001702,15.19404342,506.46770538281453,508.81162375943404,1 44765U 19074BE  25253.66670139  .00044945  00000+0  20987-2 0  9995,2 44765  53.0532 294.3081 0001702  71.2207 108.0887 15.19404342  5541
STARLINK-1063,44768,53.0548,0.000143,15.06394419,546.2383356624732,548.2189902420769,1 44768U 19074BH  25253.42567575  .00002573  00000+0  19157-3 0  9990,2 44768  53.0548 315.8579 0001430  97.1994 262.9158 15.06394419321035
STARLINK-1067,44771,53.0548,0.0001334,15.06427436,546.2036415454568,548.0513021065399,1 44771U 19074BL  25253.21556622  .00010495  00000+0  72188-3 0  9997,2 44771  53.0548 316.8022 0001334  67.5636 292.5495 15.06427436320993
STARLINK-1068,44772,53.0538,0.0001304,15.06405353,546.2920885002368,548.0982151254284,1 44772U 19074BM  25253.40538063  .00002962  00000+0  21764-3 0  9992,2 44772  53.0538 295.9498 0001304  82.0156 278.0981 15.06405353321290
STARLINK-1098,44917,53.0406,0.0007874,16.18078388,219.57526795001195,229.97353282334188,1 44917U 20001D   25253.26858630  .01205316  11773-4  70037-3 0  9994,2 44917  53.0406  17.8641 0007874 341.3089  18.7657 16.18078388313478
STARLINK-1104,44922,53.0396,0.0007251,16.26970628,195.92322639090162,205.46384643480724,1 44922U 20001J   25253.91570411  .03406465  12030-4  95571-3 0  9997,2 44922  53.0396  15.3025 0007251 338.8723  21.2017 16.26970628313562
STARLINK-1112,44925,53.0544,0.0005271,15.45042039,427.66532137538525,434.84378194914825,1 44925U 20001M   25253.43217664  .00019199  00000+0  40796-3 0  9994,2 44925  53.0544  49.0937 0005271 125.1170 235.0331 15.45042039313053
STARLINK-1114,44927,53.0558,0.0001298,15.06398903,546.3160094080931,548.1138307665478,1 44927U 20001P   25253.24505042  .00001628  00000+0  12814-3 0  9993,2 44927  53.0558  76.6679 0001298  89.2232 270.8906 15.06398903312654
STARLINK-1123,44930,53.0552,0.0001229,15.0639355,546.3801985625378,548.0824540971498,1 44930U 20001S   25252.79537722  .00000829  00000+0  74564-4 0  9999,2 44930  53.0552  78.6862 0001229  87.4639 272.6491 15.06393550312587
STARLINK-1144,44933,53.0507,0.000931,15.47970066,416.33353083132897,428.99662429975615,1 44933U 20001V   25252.68288208  .00125311  00000+0  23284-2 0  9997,2 44933  53.0507  31.4686 0009310 248.8832 111.1180 15.47970066314535
STARLINK-1071,44934,53.0372,0.0006477,16.13103098,234.0588316029107,242.62982151333472,1 44934U 20001W   25253.56063137  .00825041  41230-3  69387-3 0  9994,2 44934  53.0372 354.3310 0006477 352.2738   7.8196 16.13103098313829
STARLINK-1091,44940,53.0446,0.0003433,15.71944762,351.0283786548471,355.6502102786271,1 44940U 20001AC  25253.66670139  .00195382  00000+0  14386-2 0  9990,2 44940  53.0446  14.2624 0003433 240.5749 210.3753 15.71944762  5954
STARLINK-1094,44941,53.0543,0.0001312,15.06409772,546.273006526194,548.0902101290185,1 44941U 20001AD  25252.74192523  .00002717  00000+0  20118-3 0  9995,2 44941  53.0543  58.9246 0001312  79.9398 280.1739 15.06409772312850
STARLINK-1096,44942,52.9949,0.0003145,15.73673858,346.29202410527614,350.52302060983857,1 44942U 20001AE  25252.59756276  .00083809  00000+0  58343-3 0  9992,2 44942  52.9949 206.3728 0003145  90.5581 269.5797 15.73673858315807
STARLINK-1122,44949,53.0567,0.0001157,15.06399159,546.4128723569747,548.0153986097257,1 44949U 20001AM  25253.42750550  .00000449  00000+0  49017-4 0  9999,2 44949  53.0567  55.8435 0001157  91.5180 268.5941 15.06399159312959
STARLINK-1066,44954,53.0443,0.0005125,16.00818757,268.7418854584985,275.5584297950654,1 44954U 20001AS  25252.98177964  .00422796  88558-4  77239-3 0  9995,2 44954  53.0443 343.5845 0005125 358.5463   1.5551 16.00818757313878
STARLINK-1080,44961,53.0556,0.0001002,15.06408474,546.4916691473409,547.8795037936698,1 44961U 20001AZ  25253.42566035  .00002791  00000+0  20611-3 0  9996,2 44961  53.0556  35.8565 0001002  88.2864 271.8240 15.06408474313247
STARLINK-1090,44968,53.0562,0.0001052,15.0640177,546.4775870509084,547.934679246122,1 44968U 20001BG  25253.42935403  .00003259  00000+0  23759-3 0  9998,2 44968  53.0562  35.8418 0001052  88.7699 271.3410 15.06401770313240
STARLINK-1107,44972,53.0148,0.0007017,15.53712746,401.136744380462,410.65745783795956,1 44972U 20001BL  25253.42711118  .00060186  00000+0  92371-3 0  9996,2 44972  53.0148 330.0569 0007017  13.8483 346.2717 15.53712746314163
STARLINK-1115,44973,53.0101,0.0004896,16.43881326,152.299095866706,158.6968312230092,1 44973U 20001BM  25253.57544124  .10328723  12424-4  39425-3 0  9998,2 44973  53.0101 278.3331 0004896 235.0172 125.0417 16.43881326314890
